STARLINK-2022           
1 47643U 21012Z   24131.50638333  .00003952  00000+0  28407-3 0  9994
2 47643  53.0523 171.2059 0001288  82.0090 278.1045 15.06401599179551
